#dP2022  5 18  0  0  0.00000000      96 __u+U ITR00 EXT  IAC
## 2210 259200.00000000   900.00000000 59717 0.0000000000000
+  116   C06C07C08C09C10C11C12C13C14C16C19C20C21C22C23C24C25
+        C26C27C28C29C30C32C33C34C35C36C37C38C39C40C41C42C43
+        C44C45C46E02E03E04E05E07E08E09E10E11E12E13E14E15E18
+        E19E21E24E25E26E27E30E31E33E34E36G01G02G03G04G05G06
+        G07G08G09G10G11G12G13G14G15G16G17G18G19G20G21G22G23
+        G24G25G26G27G28G29G30G31G32J02J03R01R02R03R04R05R07
+        R08R09R11R12R13R14R15R17R18R19R20R21R22R24  0  0  0
++        10 10  9  9  9  8  8  9  9 10  9 10  9  7  9  8 10
++        10  9 10  9  7  8  8  9  8 10  9  8  9  9  8 10  8
++         8  8  9  8  8  8  8  9  9 10 11  8  8  9  9  8  8
++         8  9  9  9  7  9  9  8  8  8  7  9  9  7  9  8  9
++        12  8  9  8  9  9  9  7  9  8  8  8  8  8  8  9  8
++         8  9  8  8  8  7  9  9  9 10  9  8 10  8  8  8 10
++         8  8  8 10  8  9  8  8  8 10  9  9 10  9  0  0  0
%c M  cc GPS ccc cccc cccc cccc cccc ccccc ccccc ccccc ccccc
%c cc cc ccc ccc cccc cccc cccc cccc ccccc ccccc ccccc ccccc
%f  0.0000000  0.000000000  0.00000000000  0.000000000000000
%f  0.0000000  0.000000000  0.00000000000  0.000000000000000
%i    0    0    0    0      0      0      0      0         0
%i    0    0    0    0      0      0      0      0         0
/* IAC                                ULTRA-RAPID PREDICTION
/* S/V CLOCKS ARE ALIGNED TO GNSS TIME                      
/* G:C1WC2W R:C1PC2P E:C1XC5X C:C2IC6I J:C1CC2S             
/* PCV:IGS14_2196 OL/AL:FES2004  NONE     YN ORB:CoN CLK:CoN
*  2022 05 18  5 45  0.00000000
PC06  -2680.978766  26641.427060 -32510.168470      7.084665
PC07 -17708.861027  31830.039127  21113.822190   -181.005259
PC08  -7285.380971  40468.453463   9670.314756    318.552302
PC09   5530.811925  29825.618338 -28701.660830   -798.013411
PC10  -9032.844614  31631.223582  26382.449635    131.691452
PC11 -16882.866130   5961.699330  21453.768593    359.139335
PC12 -25010.023430  -8610.958013   8905.729355   -614.378491
PC13  -2332.794579  42176.663994   2462.666596    -29.597028
PC14 -23367.158246  15010.498781  -2330.194504    477.525547
PC16  -5691.617522  24505.081337 -33623.178992    132.375200
PC19  17281.861737 -18737.226248  11418.504208    868.866512
PC20  25465.623669 -10147.064673  -5304.223942   -919.598351
PC21 -18790.479892  -5214.773081  19973.522062   -311.515955
PC22  -1184.814797 -16857.334171  22220.063940   -969.539970
PC23   3104.885427  27277.242480   5011.424118   -930.218131
PC24 -16076.574371   5061.638930 -22251.545536   -965.895057
PC25  -8170.254728  24026.318272 -11635.761521   -735.032157
PC26 -14103.241736 -14024.983244 -19570.635382    736.281083
PC27  23846.689785  14475.313322   -266.564959    724.947811
PC28  11513.000868  19924.949898  15784.449229     68.065058
PC29   7736.759858 -13916.240148 -22929.216247    556.182939
PC30  22965.148357    324.042184 -15845.606150    498.658017
PC32  18837.096235   5058.718832 -19943.029107   -963.547772
PC33 -17228.936920  18800.198805 -11298.010942   -965.957947
PC34 -22506.012879    450.156840  16493.401058   -401.041190
PC35 -11225.123779 -19565.998559 -16465.668487    279.171793
PC36   9040.385600 -23479.867764  12094.277438   -964.454538
PC37  13338.616753  15551.695215  18970.684316   -911.027161
PC38 -11600.011207  37182.837400  16351.466477    232.940259
PC39 -11180.214278  21396.621951 -34539.434155     34.987341
PC40 -25194.964569  26642.624881  20644.732598    269.989609
PC41    760.310274  17042.619840 -22026.982907   -966.103605
PC42 -25502.373625   9360.841900   6377.561007   -971.565248
PC43  -8577.477905  13548.456948  22825.231806   -923.451308
PC44 -24287.154705 -13782.922111     13.332927    663.237456
PC45  -3272.600125 -27192.044192  -5294.489966    759.950506
PC46  15759.283940  -6766.955418  22011.094067   -330.562285
PE02   6791.231581 -26505.698199 -11275.395101    299.885187
PE03    561.757929 -17073.652220  24178.099754   -559.416702
PE04  20285.840777  12509.296304 -17543.703000  -1030.365229
PE05  21471.342775 -11676.835445  16708.926615   -180.585935
PE07 -29588.674245   -444.888820    385.511168   -669.610529
PE08 -20537.940055 -12227.710446  17458.821161   -531.018847
PE09  29606.680907    249.251173   -249.577525   -522.140817
PE10  20145.492081  16327.206491 -14285.956506   -513.735527
PE11  19569.572782   6258.957173 -21314.916306   3636.091037
PE12  17424.805231  23303.631133  -5373.342890   4608.208322
PE13 -19683.460523  -7011.294771  20968.603360    428.748853
PE14  29668.833897  -3393.629603 -10517.825800  -1834.343101
PE15 -17411.271735 -23369.009367   5220.349902    744.982557
PE18 -24370.838232  -2940.400098   2334.062875  -1435.787009
PE19  -3456.091597  16799.146744 -24112.212899  -4853.852117
PE21 -18238.238917  22418.101984  -6408.587669   -734.837312
PE24  19597.655843  -3796.279380  21835.937487   -621.078062
PE25  18345.093125 -22251.094716   6668.833109   -574.336418
PE26  -9891.453194  14280.217325  23963.543442  -1157.606535
PE27 -19863.009535   5164.966038 -21331.510805   -301.339190
PE30  -9055.357698 -15892.302891 -23279.539244   -519.442588
PE31   9786.621808  14987.577333  23581.029635   -496.804432
PE33   4877.779158  25862.753068  13531.312843   -456.527591
PE34  -5071.278597 -25917.899620 -13377.740800   -517.613596
PE36  10376.207358 -13361.395261 -24293.946834   -375.239862
PG01 -16031.777751  -3129.428228  20726.192580    360.548876
PG02  14886.335127  21145.652962  -5040.841513   -653.224862
PG03 -19490.069229   7526.876407  16220.560526   -248.194509
PG04 -26114.433881   -565.866273  -5050.104323   -166.184600
PG05  13314.098934   7600.441938 -21859.421534    -82.252151
PG06   4654.857394  24870.924215   8002.252996    307.707274
PG07  -9524.061832  14051.046492 -19899.131059    322.138779
PG08 -25804.612988  -5631.824718  -4298.034040    -68.477089
PG09 -21060.673161   7932.933151 -14192.025206   -335.874390
PG10   9904.965812 -22970.255242   8622.922616   -418.812931
PG11  12821.576435  22356.651792  -6460.102740    -23.614655
PG12  18760.038468  -2374.962817  18334.047973   -217.185608
PG13  20290.352398  13296.007554 -11167.163402    313.592658
PG14 -11721.518942  22617.427049   7349.195831   -108.764219
PG15  26325.787108   2879.591233  -4038.167078    -60.373101
PG16  -8778.695154 -12656.168247 -21867.021513   -501.819910
PG17  -5190.966586  14249.284599  22238.751614    613.988722
PG18   9743.839834 -13565.462579 -20631.761300    167.118363
PG19   3702.490638  15452.440938  21059.826025    158.790024
PG20   6273.605182  17548.060066 -19003.785836    514.755687
PG21 -18644.836716 -12348.754184  15473.888751    161.123831
PG22  -6673.547986 -16054.354059  20544.006743    260.948733
PG23  16560.634035 -20568.412425  -2285.436028    -22.595914
PG24  18335.153549   6484.196524  17963.930225    239.041908
PG25  19217.115433 -15915.322229   8405.746708    326.116882
PG26   -703.559442 -20710.842731 -16526.238520    206.379063
PG27 -18336.387329 -12575.515348 -15033.858050    204.574121
PG28  -5049.203237  21410.084126  15561.043333    355.934424
PG29      0.000000      0.000000      0.000000   -514.811610
PG30  -2888.325387  21757.188535 -14696.575322   -528.307201
PG31  -6004.469053 -25068.393023   5150.393390   -178.079113
PG32   1765.217436 -15249.034334  21819.460286   -129.685674
PJ02 -25371.367620  32620.605644  -3479.287454     -0.168584
PJ03 -26004.910378  22622.977778  29389.311352     -2.228920
PR01  23748.707458  -9257.375116   1204.007044      8.843274
PR02  11662.563300 -13053.212107  18576.228799    518.716795
PR03  -6763.605411  -9173.297488  22874.221123     56.849223
PR04 -21012.587769   -165.982195  14499.130448    142.069877
PR05 -23879.056748   8797.022680  -1889.183522     93.072579
PR07   7421.199838   8860.402034 -22690.556845     35.236331
PR08  21113.110343     25.150460 -14234.913305    -65.179769
PR09  -5927.214747  24578.248618  -3050.367928     55.650854
PR11   9681.974328   6610.195963  22663.127559     38.733575
PR12  11563.951350 -13296.326707  18461.299464     18.518753
PR13   6563.235870 -24258.707628   4361.576767    -22.438675
PR14  -2722.165018 -21298.620664 -13773.742709     25.671478
PR15  -9950.914244  -5848.404076 -22728.330232     96.057247
PR17 -14633.234391 -18678.910961  -9314.627497    527.041929
PR18 -20199.674463 -13688.228994   7538.778005    117.242563
PR19 -15733.979227  -2813.075428  19872.905058   -189.395503
PR20   -414.565971  13042.277719  21908.944306    -70.770391
PR21  15479.258067  18689.325342   7889.367218   -302.132599
PR22  20048.613853  13258.534144  -8409.343380   -183.837044
PR24   -258.281243 -13801.980810 -21437.396242     94.280638
EOF
